SL-16 R/B               
1 25400U 98043G   25358.86668885  .00000066  00000+0  46530-4 0  9996
2 25400  98.8145 306.7537 0008991 227.5212 132.5208 14.26028128428321
SL-16 R/B               
1 25407U 98045B   25358.70183649  .00000302  00000+0  17666-3 0  9998
2 25407  71.0120 339.2699 0006244 156.7061 203.4346 14.16177775416485
ISS (ZARYA)             
1 25544U 98067A   25358.72926446  .00013665  00000+0  24881-3 0  9999
2 25544  51.6317  83.1022 0003193 296.2044  63.8616 15.49788781544713
CZ-4B R/B               
1 25732U 99025C   25358.90559422  .00000080  00000+0  59374-4 0  9992
2 25732  98.6752  39.9126 0036823 198.4612 334.4678 14.18246592377566
OKEAN-O                 
1 25860U 99039A   25358.89012014  .00000744  00000+0  10482-3 0  9991
2 25860  97.9585  54.4857 0001121 114.2604 245.8725 14.80181497423322
SL-16 R/B               
1 25861U 99039B   25358.87354953  .00000643  00000+0  88612-4 0  9990
2 25861  98.0109  53.0247 0015764 136.7024 223.5430 14.81603315425785
DELTA 2 R/B             
1 25876U 99041E   25358.89271011  .00001122  00000+0  22007-3 0  9992
2 25876  51.7604 239.9317 0504432 127.5826 237.2029 14.11432571352460
HELIOS 1B               
1 25977U 99064A   25358.71143843  .00001852  00000+0  21164-3 0  9994
2 25977  98.1755 253.7322 0001027  30.6426 329.4849 14.87327480674114
TERRA                   
1 25994U 99068A   25358.86742309  .00000481  00000+0  10734-3 0  9993
2 25994  97.9731  50.1059 0003433  70.4383  44.8464 14.60915016384159
SL-16 R/B               
1 26070U 00006B   25358.90971180  .00000122  00000+0  86471-4 0  9993
2 26070  71.0013 255.0693 0018584 292.1452  67.7698 14.15808796337971
TITAN 4B R/B            
1 26474U 00047B   25358.94047973  .00003749  00000+0  24191-3 0  9992
2 26474  67.9888 250.5882 0038064 129.6151 230.8369 15.08865841381635
ENVISAT                 
1 27386U 02009A   25352.94754304  .00000081  00000+0  39999-4 0  9991
2 27386  98.3609 303.5309 0001126  84.8976 298.2993 14.39001403247569
